{
  "type": "FeatureCollection",
  "features": [
    {
      "type": "Feature",
      "properties": {
        "norad_id": 41556,
        "name": "ZIYUAN 3-2 (ZY 3-2)",
        "group": "resource",
        "lat": -78.76071773324364,
        "lon": -157.09518930955352,
        "alt_km": 500.57534153944016,
        "timestamp": "2025-12-15T15:53:19.535691+00:00",
        "meta_object_name": "ZIYUAN 3-2 (ZY 3-2)",
        "meta_object_id": "2016-033A",
        "meta_epoch": "2025-12-14T22:57:32.122656",
        "meta_mean_motion": 15.21538898,
        "meta_eccentricity": 0.0012606,
        "meta_inclination": 97.4045,
        "meta_ra_of_asc_node": 63.0877,
        "meta_arg_of_pericenter": 240.4707,
        "meta_mean_anomaly": 119.5273,
        "meta_ephemeris_type": 0,
        "meta_classification_type": "U",
        "meta_norad_cat_id": 41556,
        "meta_element_set_no": 999,
        "meta_rev_at_epoch": 52997,
        "meta_bstar": 0.00026925798,
        "meta_mean_motion_dot": 6.008e-05,
        "meta_mean_motion_ddot": 0,
        "tle_line1": "1 41556U 16033A   25348.95662179  .00006008  00000+0  26926-3 0  9992",
        "tle_line2": "2 41556  97.4045  63.0877 0012606 240.4707 119.5273 15.21538898529972"
      },
      "geometry": {
        "type": "Point",
        "coordinates": [
          -157.09518930955352,
          -78.76071773324364
        ]
      }
    },
    {
      "type": "Feature",
      "properties": {
        "norad_id": 41599,
        "name": "CARTOSAT-2C",
        "group": "resource",
        "lat": -2.3295936330817297,
        "lon": -133.42280951265832,
        "alt_km": 515.6560335643917,
        "timestamp": "2025-12-15T15:53:19.535700+00:00",
        "meta_object_name": "CARTOSAT-2C",
        "meta_object_id": "2016-040A",
        "meta_epoch": "2025-12-14T23:17:00.719808",
        "meta_mean_motion": 15.1932254,
        "meta_eccentricity": 0.0010696,
        "meta_inclination": 97.4768,
        "meta_ra_of_asc_node": 46.1984,
        "meta_arg_of_pericenter": 57.8849,
        "meta_mean_anomaly": 302.3422,
        "meta_ephemeris_type": 0,
        "meta_classification_type": "U",
        "meta_norad_cat_id": 41599,
        "meta_element_set_no": 999,
        "meta_rev_at_epoch": 52574,
        "meta_bstar": 0.00023002466,
        "meta_mean_motion_dot": 4.796e-05,
        "meta_mean_motion_ddot": 0,
        "tle_line1": "1 41599U 16040A   25348.97014722  .00004796  00000+0  23002-3 0  9998",
        "tle_line2": "2 41599  97.4768  46.1984 0010696  57.8849 302.3422 15.19322540525747"
      },
      "geometry": {
        "type": "Point",
        "coordinates": [
          -133.42280951265832,
          -2.3295936330817297
        ]
      }
    },
    {
      "type": "Feature",
      "properties": {
        "norad_id": 41601,
        "name": "SKYSAT-C1",
        "group": "resource",
        "lat": 16.747473642229078,
        "lon": 24.3976305320642,
        "alt_km": 467.1598746191794,
        "timestamp": "2025-12-15T15:53:19.535710+00:00",
        "meta_object_name": "SKYSAT-C1",
        "meta_object_id": "2016-040C",
        "meta_epoch": "2025-12-14T16:18:40.235904",
        "meta_mean_motion": 15.32632863,
        "meta_eccentricity": 0.0002153,
        "meta_inclination": 96.9829,
        "meta_ra_of_asc_node": 25.5841,
        "meta_arg_of_pericenter": 9.8145,
        "meta_mean_anomaly": 350.314,
        "meta_ephemeris_type": 0,
        "meta_classification_type": "U",
        "meta_norad_cat_id": 41601,
        "meta_element_set_no": 999,
        "meta_rev_at_epoch": 52957,
        "meta_bstar": 0.00025860822,
        "meta_mean_motion_dot": 8.078e-05,
        "meta_mean_motion_ddot": 0,
        "tle_line1": "1 41601U 16040C   25348.67963236  .00008078  00000+0  25861-3 0  9994",
        "tle_line2": "2 41601  96.9829  25.5841 0002153   9.8145 350.3140 15.32632863529573"
      },
      "geometry": {
        "type": "Point",
        "coordinates": [
          24.3976305320642,
          16.747473642229078
        ]
      }
    },
    {
      "type": "Feature",
      "properties": {
        "norad_id": 41603,
        "name": "LAPAN-A3",
        "group": "resource",
        "lat": 29.980123770590815,
        "lon": 171.26098087398984,
        "alt_km": 476.08382308868477,
        "timestamp": "2025-12-15T15:53:19.535719+00:00",
        "meta_object_name": "LAPAN-A3",
        "meta_object_id": "2016-040E",
        "meta_epoch": "2025-12-14T23:33:24.410592",
        "meta_mean_motion": 15.3157213,
        "meta_eccentricity": 0.00094162,
        "meta_inclination": 97.1428,
        "meta_ra_of_asc_node": 346.4565,
        "meta_arg_of_pericenter": 325.1375,
        "meta_mean_anomaly": 34.925,
        "meta_ephemeris_type": 0,
        "meta_classification_type": "U",
        "meta_norad_cat_id": 41603,
        "meta_element_set_no": 999,
        "meta_rev_at_epoch": 52660,
        "meta_bstar": 0.00011650717,
        "meta_mean_motion_dot": 3.482e-05,
        "meta_mean_motion_ddot": 0,
        "tle_line1": "1 41603U 16040E   25348.98153253  .00003482  00000+0  11651-3 0  9996",
        "tle_line2": "2 41603  97.1428 346.4565 0009416 325.1375  34.9250 15.31572130526606"
      },
      "geometry": {
        "type": "Point",
        "coordinates": [
          171.26098087398984,
          29.980123770590815
        ]
      }
    },
    {
      "type": "Feature",
      "properties": {
        "norad_id": 41604,
        "name": "BIROS",
        "group": "resource",
        "lat": -49.7614417230375,
        "lon": -167.2170217724127,
        "alt_km": 306.6966353123589,
        "timestamp": "2025-12-15T15:53:19.535729+00:00",
        "meta_object_name": "BIROS",
        "meta_object_id": "2016-040F",
        "meta_epoch": "2025-12-14T14:46:02.605152",
        "meta_mean_motion": 15.90518586,
        "meta_eccentricity": 0.00036384,
        "meta_inclination": 97.0681,
        "meta_ra_of_asc_node": 20.1243,
        "meta_arg_of_pericenter": 144.5694,
        "meta_mean_anomaly": 215.5822,
        "meta_ephemeris_type": 0,
        "meta_classification_type": "U",
        "meta_norad_cat_id": 41604,
        "meta_element_set_no": 999,
        "meta_rev_at_epoch": 52902,
        "meta_bstar": 0.00057801768,
        "meta_mean_motion_dot": 0.00175866,
        "meta_mean_motion_ddot": 1.3188834e-05,
        "tle_line1": "1 41604U 16040F   25348.61530793  .00175866  13189-4  57802-3 0  9996",
        "tle_line2": "2 41604  97.0681  20.1243 0003638 144.5694 215.5822 15.90518586529024"
      },
      "geometry": {
        "type": "Point",
        "coordinates": [
          -167.2170217724127,
          -49.7614417230375
        ]
      }
    },
    {
      "type": "Feature",
      "properties": {
        "norad_id": 41727,
        "name": "GAOFEN-3",
        "group": "resource",
        "lat": 67.04974261904697,
        "lon": -25.23043864450819,
        "alt_km": 743.6766322074336,
        "timestamp": "2025-12-15T15:53:19.535738+00:00",
        "meta_object_name": "GAOFEN-3",
        "meta_object_id": "2016-049A",
        "meta_epoch": "2025-12-14T22:55:16.764096",
        "meta_mean_motion": 14.42214307,
        "meta_eccentricity": 0.0001375,
        "meta_inclination": 98.4044,
        "meta_ra_of_asc_node": 354.5078,
        "meta_arg_of_pericenter": 60.4849,
        "meta_mean_anomaly": 299.6477,
        "meta_ephemeris_type": 0,
        "meta_classification_type": "U",
        "meta_norad_cat_id": 41727,
        "meta_element_set_no": 999,
        "meta_rev_at_epoch": 49209,
        "meta_bstar": 4.0991849e-05,
        "meta_mean_motion_dot": 9.2e-07,
        "meta_mean_motion_ddot": 0,
        "tle_line1": "1 41727U 16049A   25348.95505514  .00000092  00000+0  40992-4 0  9995",
        "tle_line2": "2 41727  98.4044 354.5078 0001375  60.4849 299.6477 14.42214307492097"
      },
      "geometry": {
        "type": "Point",
        "coordinates": [
          -25.23043864450819,
          67.04974261904697
        ]
      }
    },
    {
      "type": "Feature",
      "properties": {
        "norad_id": 41771,
        "name": "SKYSAT-C4",
        "group": "resource",
        "lat": 53.17910334531724,
        "lon": 5.3472415373218105,
        "alt_km": 434.01668116855853,
        "timestamp": "2025-12-15T15:53:19.535747+00:00",
        "meta_object_name": "SKYSAT-C4",
        "meta_object_id": "2016-058B",
        "meta_epoch": "2025-12-14T14:44:33.623520",
        "meta_mean_motion": 15.42314327,
        "meta_eccentricity": 0.00017288,
        "meta_inclination": 96.9378,
        "meta_ra_of_asc_node": 13.7108,
        "meta_arg_of_pericenter": 134.7508,
        "meta_mean_anomaly": 225.3881,
        "meta_ephemeris_type": 0,
        "meta_classification_type": "U",
        "meta_norad_cat_id": 41771,
        "meta_element_set_no": 999,
        "meta_rev_at_epoch": 51696,
        "meta_bstar": 0.00030601812,
        "meta_mean_motion_dot": 0.00013108,
        "meta_mean_motion_ddot": 0,
        "tle_line1": "1 41771U 16058B   25348.61427805  .00013108  00000+0  30602-3 0  9991",
        "tle_line2": "2 41771  96.9378  13.7108 0001728 134.7508 225.3881 15.42314327516968"
      },
      "geometry": {
        "type": "Point",
        "coordinates": [
          5.3472415373218105,
          53.17910334531724
        ]
      }
    }
  ]
}